{"type":"FeatureCollection","features":[{"type":"Feature","properties":{"county":"Bexar"},"geometry":{"type":"MultiPolygon","coordinates":[[[[-98.80656,29.69071],[-98.80041,29.69743],[-98.79096,29.70728],[-98.77879,29.72017],[-98.77825,29.72001],[-98.77805,29.72005],[-98.77781,29.72017],[-98.77747,29.72011],[-98.77692,29.72026],[-98.77617,29.72],[-98.77585,29.72005],[-98.77583,29.7199],[-98.77546,29.71975],[-98.77513,29.71969],[-98.77492,29.71971],[-98.77471,29.7198],[-98.77421,29.72014],[-98.77384,29.72024],[-98.77303,29.7202],[-98.77153,29.72046],[-98.77136,29.7206],[-98.77114,29.72105],[-98.77085,29.72137],[-98.77021,29.72144],[-98.76905,29.7213],[-98.76814,29.72102],[-98.76786,29.72089],[-98.76776,29.72075],[-98.76737,29.71984],[-98.76706,29.71961],[-98.76667,29.71956],[-98.76613,29.7198],[-98.76493,29.72088],[-98.7645,29.72098],[-98.76365,29.72127],[-98.76261,29.7219],[-98.76226,29.72202],[-98.76088,29.72186],[-98.76006,29.72232],[-98.75978,29.72234],[-98.75952,29.72222],[-98.75929,29.72174],[-98.75914,29.72156],[-98.75893,29.72143],[-98.75871,29.72142],[-98.75857,29.72146],[-98.75826,29.7218],[-98.75786,29.72192],[-98.75706,29.72203],[-98.75656,29.7218],[-98.75619,29.72171],[-98.75536,29.72173],[-98.75436,29.72134],[-98.75313,29.72123],[-98.75293,29.7211],[-98.75231,29.72047],[-98.75212,29.72033],[-98.75189,29.72026],[-98.75155,29.72027],[-98.75095,29.72079],[-98.75037,29.72102],[-98.74806,29.72056],[-98.74692,29.71979],[-98.74559,29.71904],[-98.74467,29.71843],[-98.74443,29.71811],[-98.7444,29.71788],[-98.74445,29.71716],[-98.74432,29.71681],[-98.74403,29.71648],[-98.74378,29.71637],[-98.74359,29.71639],[-98.74331,29.7166],[-98.74299,29.71676],[-98.74259,29.71685],[-98.74072,29.71709],[-98.74054,29.71708],[-98.74032,29.71697],[-98.73966,29.71696],[-98.73917,29.71684],[-98.73856,29.71656],[-98.73817,29.71658],[-98.73778,29.71675],[-98.73728,29.71712],[-98.73572,29.71858],[-98.73569,29.7191],[-98.73547,29.71941],[-98.73527,29.7203],[-98.73477,29.72095],[-98.73426,29.72137],[-98.73375,29.72153],[-98.73243,29.72162],[-98.73044,29.72188],[-98.72897,29.72231],[-98.72882,29.72246],[-98.72881,29.7226],[-98.72897,29.72328],[-98.72969,29.72413],[-98.73049,29.72541],[-98.73054,29.72567],[-98.73068,29.72584],[-98.731,29.72606],[-98.73203,29.72702],[-98.73284,29.72748],[-98.73333,29.72765],[-98.73372,29.72791],[-98.73423,29.72865],[-98.73434,29.7289],[-98.73413,29.72946],[-98.73384,29.72954],[-98.73321,29.72959],[-98.73253,29.72954],[-98.7315,29.72935],[-98.73084,29.72917],[-98.72951,29.72864],[-98.72809,29.72841],[-98.72639,29.72783],[-98.72583,29.72773],[-98.72533,29.72781],[-98.72512,29.72792],[-98.72474,29.72876],[-98.72458,29.729],[-98.72433,29.72923],[-98.72396,29.72946],[-98.72364,29.72957],[-98.72324,29.72962],[-98.72303,29.72957],[-98.72288,29.72941],[-98.7225,29.72936],[-98.72182,29.7289],[-98.72095,29.72804],[-98.72038,29.72738],[-98.7197,29.72677],[-98.71908,29.72635],[-98.71903,29.72624],[-98.71823,29.72575],[-98.71768,29.72531],[-98.71748,29.72527],[-98.71724,29.72528],[-98.71627,29.72554],[-98.71561,29.72582],[-98.71528,29.7261],[-98.71444,29.72661],[-98.71305,29.72786],[-98.71286,29.72822],[-98.7107,29.73086],[-98.71042,29.73111],[-98.71001,29.73135],[-98.7078,29.73238],[-98.70641,29.7328],[-98.70623,29.73295],[-98.7059,29.73306],[-98.70528,29.73314],[-98.70402,29.73312],[-98.70312,29.73289],[-98.7027,29.73266],[-98.7019,29.73239],[-98.70142,29.73231],[-98.7009,29.73231],[-98.70047,29.73241],[-98.7002,29.73257],[-98.7,29.73262],[-98.69989,29.73272],[-98.69986,29.73294],[-98.70004,29.73349],[-98.70044,29.73422],[-98.70067,29.73476],[-98.70085,29.73503],[-98.70114,29.73572],[-98.70105,29.73611],[-98.70099,29.73688],[-98.70088,29.73714],[-98.70042,29.7374],[-98.7,29.73745],[-98.69942,29.73724],[-98.69906,29.73722],[-98.69648,29.73649],[-98.69506,29.73602],[-98.69396,29.73558],[-98.69372,29.7356],[-98.69322,29.73532],[-98.69273,29.73521],[-98.69212,29.73526],[-98.6918,29.73534],[-98.69152,29.73551],[-98.69047,29.73667],[-98.69042,29.73678],[-98.68965,29.73755],[-98.68844,29.73845],[-98.68773,29.73864],[-98.68643,29.73916],[-98.68577,29.7393],[-98.68514,29.73926],[-98.68491,29.73936],[-98.68468,29.73939],[-98.68353,29.73944],[-98.68294,29.73936],[-98.68265,29.73923],[-98.68196,29.7388],[-98.68142,29.73831],[-98.68046,29.738],[-98.67881,29.73769],[-98.67829,29.7377],[-98.6772,29.73747],[-98.67659,29.73728],[-98.67591,29.73736],[-98.67577,29.73742],[-98.67554,29.73762],[-98.67533,29.73785],[-98.67522,29.73806],[-98.67491,29.73825],[-98.67474,29.73854],[-98.67451,29.73882],[-98.67424,29.7398],[-98.67423,29.74004],[-98.67428,29.74027],[-98.67448,29.74054],[-98.67446,29.74066],[-98.67438,29.74081],[-98.67439,29.741],[-98.67426,29.74145],[-98.67384,29.74212],[-98.67363,29.74229],[-98.67335,29.74243],[-98.67237,29.74268],[-98.67088,29.74328],[-98.67044,29.74339],[-98.66958,29.74354],[-98.66923,29.74355],[-98.66849,29.74348],[-98.66749,29.74324],[-98.66649,29.74285],[-98.666,29.74257],[-98.66524,29.742],[-98.66423,29.7416],[-98.66376,29.74117],[-98.66325,29.74103],[-98.66223,29.74107],[-98.66166,29.74141],[-98.66147,29.74144],[-98.66122,29.74134],[-98.66027,29.74157],[-98.66001,29.74174],[-98.65975,29.74204],[-98.65971,29.74214],[-98.65978,29.74279],[-98.65996,29.74312],[-98.66014,29.74332],[-98.66058,29.74373],[-98.66356,29.74519],[-98.66369,29.74539],[-98.66375,29.74628],[-98.66345,29.74698],[-98.6631,29.74755],[-98.66282,29.74778],[-98.6625,29.74819],[-98.66194,29.74876],[-98.6614,29.74915],[-98.66112,29.74931],[-98.66098,29.74933],[-98.65974,29.7492],[-98.65898,29.74924],[-98.65847,29.74921],[-98.65816,29.74904],[-98.6581,29.74893],[-98.65806,29.74838],[-98.65797,29.74824],[-98.65759,29.74797],[-98.65725,29.74784],[-98.65655,29.74772],[-98.65599,29.74778],[-98.65504,29.7482],[-98.65361,29.74857],[-98.65306,29.74883],[-98.65275,29.74917],[-98.65259,29.74948],[-98.65256,29.74987],[-98.65267,29.7502],[-98.65293,29.75068],[-98.65323,29.751],[-98.65333,29.75117],[-98.65334,29.75155],[-98.65318,29.75216],[-98.65314,29.75265],[-98.65303,29.75296],[-98.65288,29.75319],[-98.65251,29.75355],[-98.65185,29.75385],[-98.65129,29.75403],[-98.65095,29.75401],[-98.65035,29.7538],[-98.64979,29.75351],[-98.64946,29.75322],[-98.64916,29.75281],[-98.64858,29.75178],[-98.64852,29.7516],[-98.64852,29.75115],[-98.64827,29.75083],[-98.64805,29.75016],[-98.64788,29.75001],[-98.64776,29.74981],[-98.64624,29.74865],[-98.64568,29.74816],[-98.64547,29.74786],[-98.64552,29.74741],[-98.64566,29.747],[-98.64609,29.74651],[-98.64625,29.74615],[-98.64626,29.7456],[-98.64611,29.74508],[-98.64613,29.74459],[-98.64625,29.74406],[-98.64624,29.74361],[-98.64567,29.74237],[-98.64522,29.74164],[-98.64514,29.7416],[-98.64486,29.74127],[-98.64355,29.74036],[-98.64261,29.74021],[-98.64119,29.74022],[-98.64105,29.74032],[-98.64096,29.74024],[-98.64017,29.74033],[-98.6397,29.74044],[-98.63934,29.7406],[-98.63638,29.74099],[-98.63403,29.74157],[-98.63331,29.74185],[-98.63275,29.742],[-98.63186,29.74246],[-98.63165,29.74264],[-98.6302,29.74334],[-98.62974,29.7437],[-98.62877,29.74415],[-98.62833,29.74427],[-98.62748,29.74432],[-98.62484,29.74431],[-98.62375,29.74412],[-98.62334,29.74394],[-98.62214,29.74385],[-98.62149,29.74368],[-98.62121,29.7437],[-98.62024,29.74402],[-98.61983,29.7441],[-98.61924,29.74415],[-98.61806,29.74397],[-98.61784,29.74386],[-98.61693,29.74292],[-98.61687,29.7426],[-98.617,29.74116],[-98.61696,29.74058],[-98.61702,29.74042],[-98.61726,29.74019],[-98.6174,29.73994],[-98.61734,29.73946],[-98.6171,29.73911],[-98.61688,29.73895],[-98.61625,29.73871],[-98.61515,29.73784],[-98.61455,29.73766],[-98.6142,29.7376],[-98.61363,29.73776],[-98.61327,29.73808],[-98.61308,29.73815],[-98.61288,29.73815],[-98.61273,29.73824],[-98.61253,29.73873],[-98.61234,29.73985],[-98.61223,29.74001],[-98.61193,29.74008],[-98.61086,29.74],[-98.60884,29.74039],[-98.60748,29.74046],[-98.60713,29.74038],[-98.60646,29.74005],[-98.6056,29.74007],[-98.60445,29.73997],[-98.60428,29.73999],[-98.60373,29.73993],[-98.60339,29.73994],[-98.60239,29.74026],[-98.60219,29.74026],[-98.60157,29.74041],[-98.60128,29.74055],[-98.60048,29.74127],[-98.60027,29.74159],[-98.60006,29.74221],[-98.59999,29.74264],[-98.60001,29.74304],[-98.60028,29.74353],[-98.60089,29.74423],[-98.6013,29.74488],[-98.6017,29.74529],[-98.60193,29.74546],[-98.60243,29.74569],[-98.60311,29.74619],[-98.60424,29.74668],[-98.60449,29.74684],[-98.60473,29.74713],[-98.60475,29.74726],[-98.60431,29.74826],[-98.60421,29.74858],[-98.60392,29.74912],[-98.60341,29.74953],[-98.60302,29.74971],[-98.60184,29.75001],[-98.60114,29.75004],[-98.60041,29.74999],[-98.59963,29.74952],[-98.59953,29.74942],[-98.59936,29.74903],[-98.59887,29.74883],[-98.59698,29.74737],[-98.59339,29.74573],[-98.59315,29.74569],[-98.59286,29.74598],[-98.59244,29.74658],[-98.59142,29.74722],[-98.58953,29.74774],[-98.58902,29.74774],[-98.5885,29.7476],[-98.58793,29.74713],[-98.58764,29.74674],[-98.5875,29.74642],[-98.58697,29.74428],[-98.58679,29.74377],[-98.58674,29.74318],[-98.58685,29.743],[-98.5869,29.74279],[-98.58669,29.74246],[-98.5863,29.74224],[-98.58564,29.742],[-98.58478,29.74147],[-98.58412,29.74125],[-98.58345,29.74113],[-98.58252,29.74119],[-98.58234,29.74124],[-98.58226,29.74136],[-98.58233,29.7417],[-98.58231,29.74207],[-98.58226,29.74219],[-98.58173,29.74263],[-98.58093,29.74305],[-98.58021,29.74322],[-98.57969,29.7432],[-98.57939,29.7433],[-98.57882,29.74373],[-98.57874,29.74386],[-98.57868,29.74418],[-98.5787,29.74447],[-98.57899,29.74504],[-98.5793,29.74548],[-98.57921,29.74574],[-98.57894,29.74586],[-98.57837,29.74595],[-98.57791,29.74633],[-98.57753,29.74648],[-98.5767,29.74693],[-98.57634,29.74718],[-98.57611,29.74745],[-98.57604,29.7476],[-98.576,29.74777],[-98.57605,29.748],[-98.576,29.74819],[-98.57522,29.75001],[-98.57493,29.75022],[-98.57457,29.75042],[-98.5744,29.7503],[-98.57394,29.75017],[-98.57322,29.74984],[-98.57211,29.74972],[-98.57147,29.74945],[-98.57112,29.74914],[-98.5707,29.74903],[-98.57015,29.74862],[-98.56978,29.7484],[-98.569,29.74824],[-98.56858,29.74833],[-98.56831,29.74855],[-98.56818,29.7488],[-98.5684,29.74906],[-98.56845,29.74923],[-98.56833,29.74945],[-98.56792,29.75001],[-98.56744,29.7509],[-98.56707,29.75131],[-98.56681,29.75199],[-98.56646,29.75233],[-98.56616,29.75254],[-98.56555,29.75266],[-98.56311,29.75227],[-98.56297,29.75216],[-98.56284,29.75177],[-98.56268,29.75154],[-98.56231,29.75138],[-98.56159,29.75154],[-98.56039,29.75162],[-98.55957,29.75146],[-98.5593,29.75149],[-98.5584,29.75196],[-98.55756,29.75258],[-98.55734,29.75282],[-98.55644,29.75362],[-98.55513,29.75526],[-98.55505,29.75567],[-98.55508,29.75605],[-98.55535,29.7566],[-98.55546,29.75712],[-98.55514,29.75829],[-98.555,29.75864],[-98.55475,29.75906],[-98.55431,29.75945],[-98.55302,29.7602],[-98.55106,29.7607],[-98.5505,29.76072],[-98.54999,29.76055],[-98.54894,29.76035],[-98.54808,29.76],[-98.54773,29.75976],[-98.54739,29.75922],[-98.54718,29.75878],[-98.54694,29.75798],[-98.5469,29.75717],[-98.54714,29.75659],[-98.54765,29.75568],[-98.54786,29.75486],[-98.54789,29.75451],[-98.54787,29.75439],[-98.54732,29.75362],[-98.54678,29.75327],[-98.54574,29.75296],[-98.5446,29.75246],[-98.54408,29.75218],[-98.54373,29.75206],[-98.5425,29.7518],[-98.54217,29.75184],[-98.54138,29.75176],[-98.5406,29.75173],[-98.53959,29.75189],[-98.539,29.75191],[-98.53658,29.75285],[-98.53578,29.75303],[-98.53534,29.75306],[-98.53505,29.75299],[-98.53402,29.75236],[-98.53375,29.75184],[-98.53363,29.75051],[-98.53386,29.74903],[-98.53385,29.74861],[-98.53411,29.74724],[-98.53408,29.74701],[-98.53397,29.7468],[-98.53376,29.74665],[-98.53298,29.74638],[-98.532,29.74593],[-98.53134,29.74547],[-98.52997,29.74477],[-98.52901,29.74454],[-98.52858,29.74424],[-98.52846,29.7441],[-98.52829,29.74366],[-98.52829,29.74287],[-98.52818,29.74248],[-98.5282,29.74223],[-98.52797,29.74159],[-98.52764,29.74111],[-98.52722,29.74073],[-98.52679,29.74045],[-98.52649,29.74036],[-98.52587,29.74037],[-98.52546,29.74062],[-98.52539,29.74079],[-98.52544,29.74102],[-98.52559,29.74133],[-98.52576,29.74219],[-98.52589,29.74247],[-98.52609,29.74315],[-98.52609,29.74342],[-98.52602,29.74359],[-98.52583,29.74381],[-98.52554,29.74398],[-98.52531,29.74422],[-98.52457,29.74465],[-98.52338,29.74525],[-98.52315,29.74527],[-98.52179,29.74519],[-98.52025,29.74491],[-98.51858,29.7444],[-98.51795,29.74415],[-98.51681,29.74352],[-98.51623,29.74309],[-98.51607,29.74304],[-98.51563,29.7431],[-98.51474,29.7429],[-98.51357,29.74276],[-98.51289,29.74243],[-98.51262,29.74236],[-98.51184,29.74189],[-98.50974,29.74126],[-98.50949,29.74094],[-98.50858,29.74066],[-98.50818,29.74049],[-98.50745,29.7399],[-98.5072,29.7398],[-98.50684,29.73982],[-98.50644,29.73974],[-98.50586,29.73944],[-98.5055,29.73936],[-98.505,29.73906],[-98.50444,29.7388],[-98.50398,29.73865],[-98.50254,29.73832],[-98.50116,29.73825],[-98.50081,29.73827],[-98.49966,29.73852],[-98.49905,29.73853],[-98.49899,29.73861],[-98.4987,29.73855],[-98.49765,29.73855],[-98.49696,29.7385],[-98.49303,29.73704],[-98.4929,29.73694],[-98.4928,29.73672],[-98.4928,29.73634],[-98.49263,29.73614],[-98.49236,29.73594],[-98.49114,29.73553],[-98.49015,29.73535],[-98.48976,29.73535],[-98.48897,29.7355],[-98.48873,29.73568],[-98.48794,29.7359],[-98.48717,29.736],[-98.48686,29.7359],[-98.48569,29.73582],[-98.48534,29.73584],[-98.48474,29.7357],[-98.48301,29.73547],[-98.48252,29.73527],[-98.48177,29.73532],[-98.48068,29.73514],[-98.47979,29.73509],[-98.47918,29.73485],[-98.47823,29.73403],[-98.47752,29.73361],[-98.477,29.73344],[-98.4764,29.73349],[-98.47518,29.73382],[-98.47399,29.73437],[-98.47165,29.7363],[-98.46913,29.73758],[-98.46902,29.73767],[-98.46848,29.73787],[-98.46767,29.73802],[-98.4671,29.73831],[-98.46629,29.73853],[-98.46598,29.73854],[-98.46549,29.73842],[-98.46512,29.73824],[-98.46451,29.7376],[-98.46447,29.73735],[-98.46437,29.73712],[-98.46409,29.73676],[-98.46388,29.73665],[-98.46376,29.73651],[-98.46358,29.73611],[-98.46339,29.73588],[-98.46321,29.73541],[-98.46283,29.73473],[-98.46275,29.73453],[-98.46273,29.73427],[-98.46262,29.73399],[-98.46252,29.73387],[-98.46201,29.73344],[-98.46129,29.73319],[-98.46051,29.7328],[-98.46032,29.73276],[-98.46007,29.73263],[-98.45997,29.73255],[-98.45974,29.73206],[-98.45956,29.73185],[-98.45937,29.73178],[-98.45893,29.7318],[-98.4575,29.73157],[-98.45665,29.73183],[-98.45623,29.73192],[-98.4561,29.73191],[-98.45583,29.732],[-98.45546,29.73202],[-98.45398,29.73236],[-98.45262,29.7328],[-98.4525,29.73319],[-98.45172,29.73405],[-98.45121,29.73441],[-98.45069,29.73462],[-98.44948,29.73526],[-98.44905,29.73537],[-98.44869,29.73558],[-98.44779,29.73589],[-98.44679,29.73599],[-98.44583,29.73583],[-98.44487,29.73542],[-98.44368,29.73465],[-98.44348,29.73446],[-98.44337,29.7343],[-98.44332,29.73388],[-98.44311,29.73328],[-98.44301,29.73322],[-98.44277,29.73279],[-98.4427,29.73257],[-98.44278,29.73111],[-98.44293,29.73048],[-98.44347,29.72928],[-98.44358,29.72875],[-98.44368,29.72869],[-98.44429,29.72736],[-98.44461,29.72616],[-98.44465,29.7231],[-98.44471,29.72247],[-98.44463,29.72209],[-98.44451,29.72179],[-98.44422,29.72132],[-98.44418,29.72046],[-98.44399,29.71982],[-98.4437,29.71946],[-98.44361,29.71914],[-98.44338,29.71881],[-98.44284,29.71839],[-98.44258,29.71825],[-98.44129,29.71667],[-98.44078,29.71641],[-98.43897,29.71577],[-98.43835,29.71563],[-98.43788,29.71562],[-98.43727,29.71568],[-98.43514,29.71603],[-98.43457,29.71608],[-98.43351,29.71603],[-98.43093,29.71576],[-98.42999,29.71604],[-98.42842,29.71668],[-98.42797,29.71669],[-98.42742,29.71706],[-98.42701,29.71741],[-98.42685,29.7177],[-98.42688,29.71845],[-98.42697,29.71884],[-98.4273,29.71945],[-98.42786,29.72032],[-98.42897,29.72144],[-98.42945,29.72232],[-98.42987,29.7229],[-98.43001,29.72329],[-98.42996,29.72359],[-98.42973,29.72398],[-98.42817,29.72526],[-98.42776,29.72569],[-98.42699,29.72616],[-98.42627,29.72678],[-98.42592,29.72702],[-98.42482,29.72736],[-98.42358,29.72782],[-98.4232,29.72793],[-98.42302,29.72792],[-98.42262,29.72806],[-98.42246,29.7283],[-98.42106,29.72888],[-98.42054,29.72892],[-98.41961,29.72926],[-98.41864,29.72949],[-98.41781,29.72991],[-98.41726,29.73052],[-98.41696,29.73137],[-98.4169,29.7317],[-98.41691,29.73206],[-98.41728,29.73285],[-98.41787,29.73332],[-98.41828,29.73337],[-98.41923,29.73329],[-98.41984,29.73358],[-98.42049,29.73382],[-98.42085,29.73431],[-98.42097,29.7347],[-98.42099,29.73602],[-98.42135,29.73764],[-98.42181,29.73885],[-98.4218,29.73946],[-98.42177,29.74038],[-98.42104,29.74293],[-98.42068,29.74353],[-98.41899,29.74494],[-98.41815,29.74535],[-98.41703,29.74579],[-98.41684,29.74597],[-98.41642,29.74608],[-98.41628,29.74621],[-98.41607,29.74655],[-98.41522,29.74684],[-98.41436,29.74708],[-98.41331,29.74722],[-98.41301,29.7472],[-98.41265,29.74701],[-98.41209,29.74693],[-98.41112,29.74735],[-98.40971,29.74776],[-98.40844,29.74824],[-98.40828,29.74837],[-98.40779,29.7486],[-98.40748,29.74869],[-98.40689,29.74874],[-98.40618,29.7487],[-98.40541,29.74877],[-98.40388,29.74901],[-98.40328,29.74883],[-98.40302,29.74868],[-98.40251,29.74817],[-98.40237,29.748],[-98.40228,29.74724],[-98.40209,29.74686],[-98.4009,29.74563],[-98.40024,29.74485],[-98.39867,29.7435],[-98.39827,29.74285],[-98.39817,29.74256],[-98.39814,29.74225],[-98.39825,29.74158],[-98.39833,29.74137],[-98.39863,29.74102],[-98.39893,29.74085],[-98.39926,29.74052],[-98.39959,29.73998],[-98.39976,29.73928],[-98.39949,29.73846],[-98.39918,29.73812],[-98.39835,29.73762],[-98.39743,29.73747],[-98.39714,29.73735],[-98.39705,29.73738],[-98.3965,29.73725],[-98.39504,29.73711],[-98.39432,29.73671],[-98.39364,29.73649],[-98.39212,29.73639],[-98.39098,29.73649],[-98.39065,29.73638],[-98.39014,29.73597],[-98.38954,29.73515],[-98.38879,29.73439],[-98.38826,29.73395],[-98.38756,29.73387],[-98.38696,29.73395],[-98.38629,29.73428],[-98.38574,29.73468],[-98.38495,29.73504],[-98.38436,29.73515],[-98.38318,29.73511],[-98.38288,29.73489],[-98.38144,29.73416],[-98.38037,29.73379],[-98.37965,29.73359],[-98.37697,29.73262],[-98.37591,29.73208],[-98.375,29.73169],[-98.37474,29.73151],[-98.37426,29.73107],[-98.37409,29.73098],[-98.37361,29.73043],[-98.37355,29.73015],[-98.37344,29.73003],[-98.37346,29.72992],[-98.37334,29.72945],[-98.37335,29.72931],[-98.37326,29.72919],[-98.3733,29.72896],[-98.37319,29.72887],[-98.37323,29.72883],[-98.37324,29.72862],[-98.37316,29.72833],[-98.37321,29.72736],[-98.37331,29.72669],[-98.37351,29.72603],[-98.37377,29.72572],[-98.37432,29.7254],[-98.375,29.72463],[-98.37549,29.72354],[-98.37563,29.723],[-98.37565,29.72266],[-98.37555,29.72198],[-98.37551,29.72082],[-98.37544,29.7204],[-98.37531,29.72009],[-98.37514,29.71994],[-98.3746,29.71992],[-98.37121,29.72058],[-98.36984,29.7207],[-98.36833,29.72173],[-98.368,29.72186],[-98.36621,29.72303],[-98.36547,29.72344],[-98.36438,29.72433],[-98.36372,29.72508],[-98.36271,29.72606],[-98.36241,29.72628],[-98.36164,29.727],[-98.36149,29.72719],[-98.35939,29.72904],[-98.35932,29.72919],[-98.3584,29.73026],[-98.35841,29.73083],[-98.35833,29.73101],[-98.35694,29.73244],[-98.35666,29.73308],[-98.35618,29.73381],[-98.35582,29.73408],[-98.35484,29.73431],[-98.35359,29.73449],[-98.35316,29.73449],[-98.3526,29.73437],[-98.35221,29.73416],[-98.35212,29.73397],[-98.35222,29.73373],[-98.35216,29.73339],[-98.35226,29.73318],[-98.3524,29.73267],[-98.35246,29.73217],[-98.35241,29.73189],[-98.35207,29.73131],[-98.35168,29.73084],[-98.35133,29.73054],[-98.35099,29.72993],[-98.35043,29.72913],[-98.35034,29.72892],[-98.34922,29.72752],[-98.34841,29.72711],[-98.34792,29.72698],[-98.34725,29.72696],[-98.34678,29.72687],[-98.34559,29.72646],[-98.34502,29.72607],[-98.34372,29.72483],[-98.34238,29.72409],[-98.34212,29.72381],[-98.34151,29.72334],[-98.34059,29.72288],[-98.33957,29.72245],[-98.3388,29.72201],[-98.33863,29.72179],[-98.33808,29.72044],[-98.33804,29.72016],[-98.33802,29.71895],[-98.3381,29.7187],[-98.33813,29.71827],[-98.33842,29.71759],[-98.33873,29.71705],[-98.33896,29.71681],[-98.33954,29.71639],[-98.34008,29.71612],[-98.34037,29.71582],[-98.34047,29.71537],[-98.3405,29.71466],[-98.34058,29.71458],[-98.34058,29.71445],[-98.34025,29.7137],[-98.34017,29.71285],[-98.34021,29.71273],[-98.34017,29.71256],[-98.34024,29.71216],[-98.34037,29.7118],[-98.34136,29.70966],[-98.34173,29.70923],[-98.34287,29.70839],[-98.34316,29.70813],[-98.3447,29.70724],[-98.34494,29.70731],[-98.34537,29.70717],[-98.34582,29.7073],[-98.34591,29.70723],[-98.3466,29.70705],[-98.34673,29.70697],[-98.34685,29.70697],[-98.34728,29.70678],[-98.34749,29.70658],[-98.34862,29.70594],[-98.35007,29.70534],[-98.35098,29.70504],[-98.35129,29.70487],[-98.35265,29.70449],[-98.35272,29.70444],[-98.35309,29.70438],[-98.35343,29.70425],[-98.35354,29.70417],[-98.35417,29.70409],[-98.35456,29.70387],[-98.35589,29.70384],[-98.35628,29.7039],[-98.35723,29.70392],[-98.35774,29.70403],[-98.35806,29.70416],[-98.35836,29.70417],[-98.35866,29.70432],[-98.35912,29.70442],[-98.35968,29.70464],[-98.35993,29.70476],[-98.36019,29.705],[-98.36076,29.70535],[-98.36144,29.70568],[-98.36233,29.70597],[-98.36303,29.70601],[-98.36393,29.7059],[-98.36607,29.70584],[-98.36713,29.70571],[-98.36732,29.70563],[-98.36737,29.70569],[-98.36794,29.70568],[-98.36864,29.70547],[-98.36909,29.70525],[-98.36961,29.70511],[-98.3698,29.70496],[-98.37001,29.70491],[-98.37041,29.705],[-98.37084,29.70502],[-98.37102,29.70496],[-98.37128,29.70501],[-98.37165,29.70516],[-98.37298,29.70558],[-98.37307,29.70556],[-98.37328,29.70578],[-98.37401,29.70617],[-98.37507,29.70637],[-98.37588,29.70622],[-98.37641,29.70602],[-98.3767,29.70582],[-98.37712,29.70567],[-98.37839,29.70481],[-98.38017,29.70393],[-98.38038,29.70372],[-98.38049,29.70347],[-98.38066,29.7026],[-98.38093,29.70191],[-98.38097,29.7015],[-98.38088,29.70082],[-98.38071,29.7004],[-98.38053,29.69954],[-98.38053,29.69941],[-98.38068,29.69896],[-98.38067,29.69846],[-98.3808,29.69807],[-98.38088,29.69684],[-98.38083,29.69628],[-98.38052,29.69518],[-98.38032,29.69482],[-98.37979,29.69397],[-98.37925,29.69335],[-98.37905,29.6932],[-98.37826,29.69208],[-98.37815,29.69174],[-98.37773,29.69086],[-98.37746,29.69041],[-98.3774,29.6902],[-98.37672,29.68905],[-98.37662,29.68849],[-98.37644,29.68814],[-98.37637,29.68776],[-98.37632,29.68706],[-98.37639,29.68661],[-98.37681,29.68498],[-98.37687,29.684],[-98.37733,29.68292],[-98.37747,29.68271],[-98.37801,29.68225],[-98.37847,29.68199],[-98.37869,29.68192],[-98.37897,29.6819],[-98.37978,29.68148],[-98.37995,29.68131],[-98.38006,29.68109],[-98.3803,29.68094],[-98.3805,29.68095],[-98.3807,29.68087],[-98.38093,29.68067],[-98.38129,29.68059],[-98.38141,29.68063],[-98.38153,29.68052],[-98.38179,29.68045],[-98.38202,29.68009],[-98.38289,29.67929],[-98.38328,29.67902],[-98.38375,29.67884],[-98.38412,29.67859],[-98.38426,29.67845],[-98.38435,29.67825],[-98.38439,29.67804],[-98.38424,29.67742],[-98.3844,29.67707],[-98.38441,29.67693],[-98.38435,29.67642],[-98.38423,29.6761],[-98.38395,29.6758],[-98.38372,29.67571],[-98.38347,29.67543],[-98.38344,29.67522],[-98.38314,29.6747],[-98.38295,29.67455],[-98.38246,29.67445],[-98.38165,29.67409],[-98.38146,29.6738],[-98.38086,29.67191],[-98.38078,29.66974],[-98.38055,29.66844],[-98.37997,29.66699],[-98.37977,29.66588],[-98.37916,29.6633],[-98.37891,29.66295],[-98.37856,29.66272],[-98.37807,29.66262],[-98.37712,29.66273],[-98.37571,29.66308],[-98.37263,29.66394],[-98.371,29.66431],[-98.36959,29.66478],[-98.36794,29.6655],[-98.36678,29.66589],[-98.36503,29.6664],[-98.36455,29.66661],[-98.36377,29.66674],[-98.36131,29.66564],[-98.36081,29.66523],[-98.36059,29.66486],[-98.36038,29.66418],[-98.35979,29.663],[-98.35964,29.66288],[-98.35952,29.66271],[-98.35937,29.6624],[-98.35882,29.66164],[-98.35845,29.66098],[-98.35801,29.66052],[-98.35775,29.66008],[-98.35753,29.65952],[-98.35664,29.65866],[-98.35538,29.65818],[-98.35387,29.65777],[-98.35247,29.65725],[-98.3511,29.65693],[-98.349,29.65626],[-98.34739,29.65582],[-98.34512,29.65506],[-98.34371,29.65435],[-98.34337,29.65409],[-98.34322,29.65389],[-98.3429,29.65366],[-98.34274,29.65345],[-98.34262,29.65319],[-98.34271,29.65253],[-98.34341,29.651],[-98.34448,29.64942],[-98.34594,29.64757],[-98.34625,29.64702],[-98.34681,29.64618],[-98.34695,29.64607],[-98.34762,29.64503],[-98.34771,29.64476],[-98.34772,29.64442],[-98.34747,29.64348],[-98.3473,29.6424],[-98.34698,29.64154],[-98.34643,29.64036],[-98.34607,29.6393],[-98.34592,29.63916],[-98.34591,29.63899],[-98.3455,29.63818],[-98.3451,29.63764],[-98.34474,29.63739],[-98.34428,29.63653],[-98.34368,29.63562],[-98.34341,29.63533],[-98.34336,29.63515],[-98.34307,29.63481],[-98.34298,29.63457],[-98.34264,29.63421],[-98.3425,29.63391],[-98.34234,29.63372],[-98.34163,29.6326],[-98.34153,29.63238],[-98.34126,29.63201],[-98.34061,29.63024],[-98.34054,29.62961],[-98.34059,29.62848],[-98.34074,29.62807],[-98.34083,29.62762],[-98.34111,29.62729],[-98.34134,29.62686],[-98.34163,29.62647],[-98.34187,29.62622],[-98.34228,29.62556],[-98.34236,29.62508],[-98.34233,29.62438],[-98.34208,29.62386],[-98.3423,29.62349],[-98.34258,29.62273],[-98.34272,29.62196],[-98.34296,29.62173],[-98.34317,29.62162],[-98.34349,29.62153],[-98.34377,29.62133],[-98.34477,29.62105],[-98.3449,29.62096],[-98.34528,29.6205],[-98.34554,29.62005],[-98.34562,29.62],[-98.3457,29.61951],[-98.34562,29.61934],[-98.34562,29.61914],[-98.3453,29.61855],[-98.34526,29.6183],[-98.34517,29.61814],[-98.345,29.61803],[-98.34438,29.61799],[-98.34369,29.61763],[-98.34304,29.6175],[-98.34235,29.6172],[-98.34181,29.61652],[-98.34133,29.61608],[-98.34105,29.61526],[-98.34066,29.61475],[-98.34008,29.61411],[-98.33962,29.6137],[-98.33962,29.61363],[-98.33942,29.61345],[-98.33932,29.61322],[-98.33843,29.61259],[-98.33823,29.61236],[-98.33801,29.61227],[-98.3374,29.61213],[-98.33656,29.61166],[-98.33616,29.61149],[-98.33534,29.61131],[-98.33485,29.61135],[-98.33458,29.61132],[-98.33431,29.61137],[-98.33359,29.61134],[-98.33318,29.61127],[-98.3322,29.61096],[-98.33153,29.61088],[-98.33035,29.61084],[-98.32951,29.61065],[-98.32874,29.61054],[-98.32857,29.61043],[-98.32843,29.61031],[-98.32835,29.60996],[-98.32861,29.60931],[-98.32853,29.60853],[-98.32866,29.60824],[-98.32833,29.60775],[-98.32797,29.60691],[-98.32799,29.60636],[-98.32786,29.60592],[-98.32774,29.60583],[-98.32759,29.6055],[-98.32727,29.60537],[-98.32698,29.60506],[-98.32651,29.60469],[-98.32644,29.60458],[-98.32634,29.60419],[-98.32624,29.60409],[-98.32511,29.60341],[-98.32467,29.60324],[-98.324,29.60309],[-98.32333,29.60268],[-98.32287,29.60248],[-98.32202,29.60224],[-98.32046,29.60194],[-98.31906,29.60191],[-98.31834,29.60203],[-98.31806,29.60203],[-98.31688,29.60224],[-98.31562,29.60269],[-98.31558,29.60276],[-98.31481,29.60285],[-98.31409,29.6027],[-98.31379,29.60245],[-98.31361,29.60241],[-98.31348,29.60227],[-98.31291,29.60219],[-98.31247,29.60199],[-98.31223,29.60181],[-98.31188,29.60125],[-98.31183,29.60107],[-98.31192,29.60077],[-98.3117,29.60033],[-98.31151,29.59979],[-98.31138,29.59918],[-98.31117,29.59872],[-98.31084,29.59834],[-98.31084,29.59809],[-98.311,29.59754],[-98.31088,29.59594],[-98.31102,29.59512],[-98.31103,29.59483],[-98.31093,29.59447],[-98.31108,29.59396],[-98.31105,29.59374],[-98.31109,29.59294],[-98.31122,29.59254],[-98.3115,29.59211],[-98.31178,29.59193],[-98.31191,29.59177],[-98.31202,29.5915],[-98.31206,29.5908],[-98.31167,29.59013],[-98.31064,29.58919],[-98.30999,29.58879],[-98.30942,29.58855],[-98.30822,29.58779],[-98.30729,29.58715],[-98.30703,29.58686],[-98.30623,29.58627],[-98.30597,29.58612],[-98.30562,29.58606],[-98.30516,29.58606],[-98.30491,29.58592],[-98.30398,29.58454],[-98.30383,29.58347],[-98.30383,29.58276],[-98.30393,29.58243],[-98.30419,29.58209],[-98.30441,29.58168],[-98.30462,29.58163],[-98.30474,29.58153],[-98.30514,29.58096],[-98.30535,29.58043],[-98.30555,29.58013],[-98.30578,29.57963],[-98.30596,29.57945],[-98.30608,29.57911],[-98.30614,29.57864],[-98.30585,29.57745],[-98.30544,29.57668],[-98.30507,29.57631],[-98.30481,29.57612],[-98.30318,29.57504],[-98.30292,29.57468],[-98.30274,29.57425],[-98.30261,29.57329],[-98.30263,29.57297],[-98.3028,29.57254],[-98.30294,29.57198],[-98.30292,29.57159],[-98.30254,29.56989],[-98.30195,29.56883],[-98.30155,29.56835],[-98.29986,29.56687],[-98.29947,29.56642],[-98.29911,29.56577],[-98.29895,29.5651],[-98.29865,29.56421],[-98.29865,29.56407],[-98.29857,29.56398],[-98.29856,29.56382],[-98.2984,29.56358],[-98.29834,29.56323],[-98.29848,29.563],[-98.2984,29.56263],[-98.29859,29.56219],[-98.29864,29.56193],[-98.29852,29.56115],[-98.29803,29.56111],[-98.29779,29.56088],[-98.29741,29.56082],[-98.29715,29.56093],[-98.29683,29.56089],[-98.29674,29.56074],[-98.29667,29.56073],[-98.29657,29.56075],[-98.29632,29.56098],[-98.29573,29.56105],[-98.29562,29.56117],[-98.29507,29.56132],[-98.29495,29.56145],[-98.29471,29.56155],[-98.29353,29.56145],[-98.29283,29.56131],[-98.29233,29.56109],[-98.29213,29.5611],[-98.29151,29.56093],[-98.29127,29.56092],[-98.29114,29.56084],[-98.29046,29.56063],[-98.29038,29.56035],[-98.29005,29.56019],[-98.28873,29.55975],[-98.28846,29.55974],[-98.28817,29.5596],[-98.28779,29.55938],[-98.28678,29.55852],[-98.28601,29.55764],[-98.28599,29.55749],[-98.28572,29.55733],[-98.28563,29.55715],[-98.28553,29.55671],[-98.28555,29.55657],[-98.28578,29.55637],[-98.2858,29.55598],[-98.28571,29.55554],[-98.28556,29.55508],[-98.28554,29.55477],[-98.28527,29.55449],[-98.28507,29.55411],[-98.2847,29.55369],[-98.28454,29.55362],[-98.28419,29.55326],[-98.28361,29.55315],[-98.28311,29.5529],[-98.28279,29.55282],[-98.28237,29.55264],[-98.28152,29.55216],[-98.27907,29.55115],[-98.27882,29.55113],[-98.27864,29.55121],[-98.27779,29.55125],[-98.2763,29.55117],[-98.27596,29.55121],[-98.27497,29.55146],[-98.27457,29.55143],[-98.27377,29.55127],[-98.27364,29.55113],[-98.27348,29.55106],[-98.27298,29.55092],[-98.27203,29.5503],[-98.27173,29.55001],[-98.27085,29.54883],[-98.27068,29.5484],[-98.27081,29.54816],[-98.27077,29.54761],[-98.27067,29.54733],[-98.27064,29.54693],[-98.2707,29.54635],[-98.27039,29.54573],[-98.27027,29.54558],[-98.26982,29.54525],[-98.26886,29.54469],[-98.26766,29.54424],[-98.2666,29.54392],[-98.266,29.54379],[-98.26573,29.54381],[-98.26562,29.54388],[-98.26519,29.544],[-98.26483,29.54395],[-98.26303,29.54335],[-98.26245,29.5431],[-98.26242,29.54304],[-98.26209,29.54297],[-98.26067,29.54235],[-98.26015,29.54186],[-98.25988,29.54139],[-98.25975,29.54127],[-98.25945,29.54111],[-98.25812,29.54096],[-98.25757,29.54075],[-98.25684,29.54077],[-98.25658,29.54067],[-98.25544,29.54054],[-98.2552,29.54042],[-98.25444,29.54066],[-98.25389,29.54099],[-98.25378,29.54111],[-98.25307,29.54258],[-98.25296,29.54299],[-98.253,29.54318],[-98.25327,29.54353],[-98.25362,29.54387],[-98.25389,29.54421],[-98.25406,29.54431],[-98.25516,29.54468],[-98.2556,29.54502],[-98.25615,29.54536],[-98.25687,29.54557],[-98.25728,29.54577],[-98.25768,29.54567],[-98.25781,29.54572],[-98.25859,29.54641],[-98.25898,29.54687],[-98.25938,29.54749],[-98.25959,29.54825],[-98.25982,29.54859],[-98.25981,29.549],[-98.25988,29.54939],[-98.26008,29.54963],[-98.26013,29.54982],[-98.26008,29.55017],[-98.2598,29.55044],[-98.2597,29.55092],[-98.25975,29.55171],[-98.25963,29.55245],[-98.2593,29.55306],[-98.25924,29.55365],[-98.2591,29.55416],[-98.25893,29.55434],[-98.25871,29.55476],[-98.25854,29.55494],[-98.25827,29.5551],[-98.2579,29.55522],[-98.25753,29.55525],[-98.25683,29.55513],[-98.25609,29.55507],[-98.25596,29.55496],[-98.25561,29.55492],[-98.25532,29.5548],[-98.25485,29.55431],[-98.25464,29.55401],[-98.25449,29.55328],[-98.25458,29.55283],[-98.25481,29.55266],[-98.2553,29.55241],[-98.25537,29.55233],[-98.25534,29.55217],[-98.2552,29.552],[-98.2552,29.55159],[-98.25513,29.55138],[-98.25502,29.55126],[-98.25473,29.55121],[-98.25444,29.55098],[-98.25381,29.55032],[-98.25338,29.55012],[-98.25288,29.55003],[-98.25202,29.55004],[-98.25146,29.54984],[-98.25129,29.54983],[-98.25018,29.55028],[-98.24955,29.55069],[-98.24933,29.55089],[-98.24893,29.5514],[-98.24889,29.55153],[-98.24891,29.55175],[-98.24901,29.55212],[-98.24907,29.55259],[-98.24894,29.5546],[-98.24877,29.55498],[-98.24857,29.55527],[-98.24843,29.55538],[-98.24789,29.55566],[-98.24708,29.55594],[-98.24689,29.55593],[-98.24619,29.55605],[-98.24548,29.5563],[-98.24499,29.55661],[-98.24439,29.55674],[-98.24398,29.55691],[-98.24317,29.55706],[-98.243,29.55706],[-98.24268,29.55687],[-98.24239,29.55694],[-98.24209,29.55678],[-98.24167,29.5567],[-98.24119,29.55649],[-98.23921,29.55658],[-98.23832,29.55633],[-98.23775,29.55608],[-98.23663,29.5559],[-98.23603,29.5557],[-98.23511,29.5553],[-98.23391,29.5549],[-98.23255,29.55402],[-98.23256,29.55358],[-98.23249,29.55343],[-98.2318,29.55251],[-98.231,29.55168],[-98.23087,29.55147],[-98.2307,29.55077],[-98.23076,29.5494],[-98.2306,29.54812],[-98.23028,29.54716],[-98.22992,29.54685],[-98.22957,29.5467],[-98.22911,29.54671],[-98.22796,29.54684],[-98.22781,29.54695],[-98.2272,29.54708],[-98.22703,29.54726],[-98.22689,29.54752],[-98.22686,29.54799],[-98.2269,29.54819],[-98.22682,29.54853],[-98.22679,29.54913],[-98.22667,29.54943],[-98.22636,29.54965],[-98.2257,29.54974],[-98.22492,29.54969],[-98.22312,29.54924],[-98.22266,29.54904],[-98.22191,29.54838],[-98.2216,29.54794],[-98.22128,29.54719],[-98.22114,29.54661],[-98.22095,29.5462],[-98.22093,29.54584],[-98.22099,29.54515],[-98.22116,29.54483],[-98.22126,29.54445],[-98.22134,29.54437],[-98.22156,29.5444],[-98.22178,29.54433],[-98.22185,29.5442],[-98.22187,29.54387],[-98.22191,29.54382],[-98.22225,29.54373],[-98.22369,29.54367],[-98.22452,29.54345],[-98.22478,29.54345],[-98.22507,29.54354],[-98.22537,29.5437],[-98.22538,29.54384],[-98.22598,29.54392],[-98.22819,29.54384],[-98.22858,29.54372],[-98.22906,29.54344],[-98.2293,29.54345],[-98.22946,29.54341],[-98.22966,29.54319],[-98.22975,29.54294],[-98.22945,29.54196],[-98.22909,29.54167],[-98.22822,29.54121],[-98.2277,29.54103],[-98.22655,29.54095],[-98.22556,29.54062],[-98.22537,29.54049],[-98.22453,29.54038],[-98.22441,29.54032],[-98.22407,29.5399],[-98.22388,29.53975],[-98.22306,29.53931],[-98.22276,29.53901],[-98.2225,29.53862],[-98.22235,29.53847],[-98.22215,29.53799],[-98.22224,29.53758],[-98.2222,29.53753],[-98.22229,29.5372],[-98.22245,29.53707],[-98.22259,29.53664],[-98.22242,29.53598],[-98.22223,29.53561],[-98.2223,29.53532],[-98.22217,29.53509],[-98.22219,29.53482],[-98.22215,29.53471],[-98.22206,29.53463],[-98.22182,29.53456],[-98.2216,29.53429],[-98.22118,29.5342],[-98.22138,29.53376],[-98.2214,29.53362],[-98.22129,29.53312],[-98.22101,29.53253],[-98.22099,29.53231],[-98.22104,29.53209],[-98.22099,29.53191],[-98.22106,29.53153],[-98.22112,29.53143],[-98.22107,29.53117],[-98.22096,29.53088],[-98.22083,29.53087],[-98.22081,29.53076],[-98.22086,29.53062],[-98.22058,29.53013],[-98.22031,29.52991],[-98.21997,29.52978],[-98.21976,29.52943],[-98.21988,29.52915],[-98.21987,29.52898],[-98.2196,29.52881],[-98.21939,29.5286],[-98.21927,29.52824],[-98.21892,29.52768],[-98.21865,29.5269],[-98.21866,29.52627],[-98.21887,29.52539],[-98.21924,29.52508],[-98.21928,29.52497],[-98.2192,29.52458],[-98.21922,29.52409],[-98.21915,29.52393],[-98.21884,29.52355],[-98.21857,29.52338],[-98.21848,29.52337],[-98.21795,29.52358],[-98.21751,29.52356],[-98.21711,29.52367],[-98.21644,29.5243],[-98.21636,29.52435],[-98.21614,29.52436],[-98.21589,29.52422],[-98.21543,29.52407],[-98.21517,29.5238],[-98.21481,29.52362],[-98.21438,29.52305],[-98.21414,29.52293],[-98.21362,29.52286],[-98.2127,29.52289],[-98.21216,29.52301],[-98.21145,29.52327],[-98.21055,29.5234],[-98.21007,29.52338],[-98.20982,29.52332],[-98.20913,29.52301],[-98.20842,29.52254],[-98.2081,29.52244],[-98.20703,29.52233],[-98.20654,29.52236],[-98.20597,29.52228],[-98.20554,29.5223],[-98.20529,29.52222],[-98.20479,29.52215],[-98.20427,29.52174],[-98.20389,29.52131],[-98.20348,29.52103],[-98.20331,29.52078],[-98.20289,29.52041],[-98.20252,29.52038],[-98.20219,29.52013],[-98.2016,29.51986],[-98.20145,29.51971],[-98.20133,29.5194],[-98.20134,29.51905],[-98.20147,29.51897],[-98.20179,29.51896],[-98.20194,29.51886],[-98.20212,29.51858],[-98.20205,29.51842],[-98.20217,29.51801],[-98.20238,29.51799],[-98.20254,29.51778],[-98.20225,29.51722],[-98.20208,29.51701],[-98.20179,29.51682],[-98.20151,29.51675],[-98.20121,29.51672],[-98.2007,29.51679],[-98.20034,29.51678],[-98.20014,29.51683],[-98.19983,29.51711],[-98.19948,29.51726],[-98.19929,29.51725],[-98.19917,29.51733],[-98.19898,29.51728],[-98.19878,29.51734],[-98.19858,29.51733],[-98.19845,29.51727],[-98.19841,29.5172],[-98.19837,29.5169],[-98.19828,29.51676],[-98.19767,29.51651],[-98.19749,29.5164],[-98.19704,29.5159],[-98.19688,29.51563],[-98.19676,29.51521],[-98.19687,29.51495],[-98.19708,29.51471],[-98.19777,29.5144],[-98.19935,29.51388],[-98.19955,29.51374],[-98.19972,29.51356],[-98.19984,29.51286],[-98.19994,29.51269],[-98.19997,29.51224],[-98.2002,29.51179],[-98.20023,29.51127],[-98.20014,29.51089],[-98.19987,29.51037],[-98.19979,29.51012],[-98.19964,29.51],[-98.1994,29.50967],[-98.19909,29.50948],[-98.19858,29.50937],[-98.19801,29.50937],[-98.19791,29.50942],[-98.19792,29.50957],[-98.1977,29.5097],[-98.19745,29.5097],[-98.19642,29.50992],[-98.19634,29.51002],[-98.19591,29.51011],[-98.19592,29.51028],[-98.19569,29.51041],[-98.19563,29.51055],[-98.19552,29.51066],[-98.19549,29.51106],[-98.1953,29.51112],[-98.19496,29.51094],[-98.19505,29.51076],[-98.19503,29.51071],[-98.19443,29.51046],[-98.19409,29.51025],[-98.19374,29.51017],[-98.19255,29.51014],[-98.19182,29.5098],[-98.19009,29.50928],[-98.19006,29.50909],[-98.19017,29.5087],[-98.19043,29.50826],[-98.19074,29.508],[-98.19077,29.50788],[-98.19072,29.50774],[-98.19051,29.50762],[-98.19031,29.5073],[-98.19021,29.50689],[-98.19024,29.50645],[-98.18991,29.50573],[-98.18886,29.50435],[-98.18872,29.50423],[-98.18853,29.50416],[-98.18846,29.50404],[-98.1878,29.50362],[-98.18741,29.50327],[-98.18693,29.50268],[-98.1867,29.50231],[-98.18643,29.50184],[-98.18632,29.50138],[-98.18638,29.50077],[-98.18672,29.50043],[-98.18752,29.5],[-98.1878,29.49974],[-98.18829,29.49941],[-98.18851,29.49869],[-98.1887,29.49849],[-98.18913,29.49818],[-98.18955,29.49723],[-98.18976,29.49666],[-98.18991,29.4959],[-98.18992,29.49525],[-98.19021,29.49466],[-98.19016,29.4936],[-98.18997,29.49285],[-98.18967,29.49228],[-98.18954,29.49193],[-98.18943,29.49181],[-98.18899,29.49163],[-98.1887,29.49137],[-98.18866,29.49125],[-98.18869,29.49072],[-98.18866,29.49021],[-98.18788,29.48896],[-98.18772,29.48883],[-98.1876,29.48822],[-98.18736,29.48808],[-98.18719,29.48804],[-98.18689,29.48745],[-98.18607,29.4869],[-98.18574,29.48658],[-98.18511,29.48611],[-98.18495,29.48611],[-98.1843,29.4857],[-98.1841,29.48576],[-98.18392,29.48567],[-98.18387,29.48562],[-98.18377,29.48529],[-98.18341,29.48501],[-98.18288,29.48485],[-98.18151,29.4848],[-98.18036,29.48451],[-98.18006,29.4845],[-98.17982,29.48462],[-98.17968,29.48462],[-98.1791,29.48451],[-98.17803,29.48445],[-98.17725,29.48467],[-98.17708,29.48484],[-98.177,29.48502],[-98.17693,29.4854],[-98.17709,29.48587],[-98.17717,29.48643],[-98.17755,29.48708],[-98.17775,29.48727],[-98.1787,29.48785],[-98.17966,29.48957],[-98.17967,29.48979],[-98.17953,29.48997],[-98.1791,29.49091],[-98.17915,29.49121],[-98.17922,29.49135],[-98.17998,29.49218],[-98.18046,29.49278],[-98.18089,29.4931],[-98.18104,29.49314],[-98.18134,29.49311],[-98.18183,29.49277],[-98.18266,29.49282],[-98.18315,29.49277],[-98.18363,29.49265],[-98.1841,29.49263],[-98.18433,29.49272],[-98.18495,29.4932],[-98.18492,29.4934],[-98.18474,29.49382],[-98.18424,29.49466],[-98.18401,29.49514],[-98.18381,29.49575],[-98.18382,29.49604],[-98.18375,29.49612],[-98.18309,29.49666],[-98.18177,29.49725],[-98.18155,29.4974],[-98.18136,29.4974],[-98.18122,29.49734],[-98.1809,29.49705],[-98.18074,29.49705],[-98.17925,29.49754],[-98.17863,29.49767],[-98.1783,29.49765],[-98.17763,29.49742],[-98.17672,29.49696],[-98.17634,29.49669],[-98.17542,29.4966],[-98.17461,29.49665],[-98.17377,29.49663],[-98.17334,29.49617],[-98.1733,29.49565],[-98.17323,29.49552],[-98.17318,29.49528],[-98.17325,29.49458],[-98.1732,29.49451],[-98.17303,29.49447],[-98.17293,29.49435],[-98.17285,29.49433],[-98.17278,29.49439],[-98.17279,29.49452],[-98.17247,29.49451],[-98.17221,29.49463],[-98.17191,29.49513],[-98.17179,29.49543],[-98.1719,29.49563],[-98.17189,29.49572],[-98.17171,29.49591],[-98.17151,29.49675],[-98.17128,29.49713],[-98.17077,29.49766],[-98.17049,29.49781],[-98.17024,29.49787],[-98.16972,29.49775],[-98.16926,29.49745],[-98.16917,29.49706],[-98.1688,29.49683],[-98.16869,29.4967],[-98.16835,29.49616],[-98.16831,29.49581],[-98.16852,29.49529],[-98.16852,29.49485],[-98.16835,29.49444],[-98.1682,29.49391],[-98.16809,29.493],[-98.16828,29.49171],[-98.16829,29.49117],[-98.16807,29.49087],[-98.16772,29.49082],[-98.16733,29.49061],[-98.1672,29.49046],[-98.16696,29.49002],[-98.16689,29.48978],[-98.16695,29.48963],[-98.16727,29.48931],[-98.16752,29.48864],[-98.16816,29.48752],[-98.16867,29.48731],[-98.16877,29.4871],[-98.16845,29.48617],[-98.16829,29.48545],[-98.16826,29.48509],[-98.16815,29.48475],[-98.16788,29.48434],[-98.16747,29.48397],[-98.16743,29.48374],[-98.16717,29.48329],[-98.16702,29.4829],[-98.16698,29.48242],[-98.16684,29.48204],[-98.16691,29.48115],[-98.1668,29.48045],[-98.1668,29.47978],[-98.16659,29.47944],[-98.1661,29.47893],[-98.16555,29.47862],[-98.1652,29.47836],[-98.16464,29.47809],[-98.16397,29.47793],[-98.16298,29.47783],[-98.16196,29.47787],[-98.16162,29.47774],[-98.16125,29.47772],[-98.16081,29.47785],[-98.16016,29.47784],[-98.15977,29.47791],[-98.15949,29.47807],[-98.15945,29.47838],[-98.15926,29.4786],[-98.15913,29.47866],[-98.1587,29.47866],[-98.15682,29.47826],[-98.15576,29.47781],[-98.15454,29.47779],[-98.15417,29.47787],[-98.15241,29.47863],[-98.15194,29.47906],[-98.15173,29.4795],[-98.15167,29.47983],[-98.15129,29.48046],[-98.15118,29.48056],[-98.1509,29.48061],[-98.15057,29.48048],[-98.15044,29.48033],[-98.15016,29.47976],[-98.15027,29.4796],[-98.15025,29.47928],[-98.1504,29.47865],[-98.15049,29.47844],[-98.15068,29.47817],[-98.15069,29.47759],[-98.15057,29.47732],[-98.15059,29.47718],[-98.15079,29.47686],[-98.15096,29.47647],[-98.15099,29.47629],[-98.15096,29.4762],[-98.15059,29.47583],[-98.15024,29.47569],[-98.15003,29.47567],[-98.14953,29.47577],[-98.14882,29.4761],[-98.14827,29.47625],[-98.148,29.47637],[-98.14722,29.47695],[-98.14613,29.47755],[-98.14515,29.47792],[-98.14424,29.47813],[-98.14397,29.47828],[-98.1435,29.47879],[-98.14306,29.47952],[-98.14297,29.47975],[-98.14283,29.48048],[-98.14272,29.48062],[-98.14256,29.48119],[-98.14248,29.48162],[-98.14254,29.4819],[-98.14285,29.48242],[-98.14327,29.4827],[-98.14345,29.48271],[-98.14389,29.48252],[-98.14406,29.48253],[-98.14443,29.4831],[-98.14469,29.4836],[-98.14461,29.48406],[-98.14447,29.48424],[-98.14312,29.48401],[-98.14282,29.48403],[-98.14275,29.48409],[-98.14271,29.48437],[-98.14256,29.48464],[-98.14268,29.48519],[-98.14278,29.48531],[-98.1432,29.48541],[-98.14338,29.48551],[-98.14363,29.48575],[-98.14371,29.48596],[-98.14357,29.48608],[-98.14332,29.486],[-98.14305,29.48634],[-98.1428,29.48646],[-98.14179,29.48649],[-98.14129,29.4864],[-98.13987,29.4858],[-98.1395,29.48555],[-98.1394,29.48534],[-98.13936,29.48509],[-98.13953,29.48462],[-98.13971,29.48434],[-98.13981,29.48428],[-98.14014,29.48422],[-98.14027,29.48432],[-98.14038,29.48434],[-98.14059,29.4842],[-98.14037,29.48388],[-98.14008,29.48376],[-98.13997,29.48359],[-98.13973,29.48309],[-98.1397,29.4828],[-98.13981,29.48261],[-98.13962,29.48249],[-98.13945,29.48249],[-98.13907,29.4827],[-98.13871,29.483],[-98.13864,29.48319],[-98.13807,29.48354],[-98.13771,29.4837],[-98.13718,29.48424],[-98.13702,29.48428],[-98.13627,29.48429],[-98.13566,29.48422],[-98.13558,29.48416],[-98.13541,29.48377],[-98.13549,29.48354],[-98.13544,29.48329],[-98.13549,29.48309],[-98.13586,29.48271],[-98.13595,29.48268],[-98.13629,29.48271],[-98.13682,29.48249],[-98.13699,29.4823],[-98.13705,29.48216],[-98.13712,29.48147],[-98.13709,29.48118],[-98.13687,29.48086],[-98.13676,29.48032],[-98.13628,29.47928],[-98.13604,29.47914],[-98.13544,29.47897],[-98.13465,29.47882],[-98.13427,29.47885],[-98.13414,29.47893],[-98.13409,29.47903],[-98.13421,29.47926],[-98.13419,29.47937],[-98.13412,29.47945],[-98.134,29.47947],[-98.1337,29.47943],[-98.1336,29.47952],[-98.13343,29.47956],[-98.13308,29.47974],[-98.13243,29.47979],[-98.13226,29.47987],[-98.13187,29.48013],[-98.13133,29.48083],[-98.13123,29.48099],[-98.13121,29.48125],[-98.13111,29.48139],[-98.13088,29.48145],[-98.1306,29.48171],[-98.12996,29.48205],[-98.129,29.48246],[-98.12821,29.4826],[-98.12735,29.48247],[-98.12678,29.48225],[-98.12601,29.4818],[-98.12589,29.48169],[-98.12586,29.4813],[-98.12556,29.48096],[-98.12514,29.4802],[-98.1239,29.47944],[-98.12256,29.47798],[-98.12227,29.4775],[-98.12224,29.4773],[-98.12227,29.47711],[-98.12302,29.47641],[-98.12335,29.47636],[-98.12388,29.47652],[-98.12435,29.4765],[-98.1245,29.47647],[-98.12489,29.47623],[-98.12489,29.47564],[-98.12443,29.47527],[-98.12409,29.47401],[-98.12294,29.47318],[-98.12266,29.47305],[-98.12229,29.47302],[-98.12204,29.47308],[-98.12173,29.47325],[-98.12142,29.47349],[-98.12127,29.47354],[-98.12092,29.47349],[-98.12069,29.47329],[-98.12066,29.47298],[-98.12098,29.47237],[-98.12101,29.47222],[-98.12072,29.47142],[-98.12071,29.4712],[-98.12059,29.47085],[-98.12041,29.47062],[-98.11912,29.46963],[-98.11873,29.46927],[-98.11833,29.46864],[-98.11779,29.46725],[-98.11757,29.46651],[-98.11735,29.46537],[-98.11691,29.46389],[-98.11699,29.4633],[-98.11702,29.46216],[-98.11707,29.46175],[-98.11742,29.4609],[-98.11766,29.46055],[-98.11778,29.46023],[-98.11798,29.46004],[-98.11874,29.45951],[-98.11932,29.4589],[-98.11952,29.45859],[-98.11983,29.45787],[-98.12025,29.45747],[-98.12066,29.45737],[-98.12088,29.45737],[-98.12358,29.45768],[-98.12451,29.45794],[-98.12513,29.458],[-98.1257,29.45826],[-98.12594,29.45818],[-98.12608,29.45804],[-98.12628,29.45793],[-98.12651,29.45759],[-98.12683,29.45732],[-98.12691,29.45711],[-98.127,29.45644],[-98.12694,29.45606],[-98.12697,29.45573],[-98.12678,29.45475],[-98.12664,29.45459],[-98.1262,29.4544],[-98.12541,29.4538],[-98.12482,29.4535],[-98.1243,29.45307],[-98.12411,29.45278],[-98.12355,29.45216],[-98.12257,29.4509],[-98.12202,29.45042],[-98.12185,29.45031],[-98.12151,29.45019],[-98.12091,29.45033],[-98.12083,29.45033],[-98.12069,29.45018],[-98.1205,29.44967],[-98.1205,29.44953],[-98.12069,29.44929],[-98.12119,29.44898],[-98.1215,29.44837],[-98.12158,29.44794],[-98.12152,29.44771],[-98.12067,29.44694],[-98.12066,29.44672],[-98.12093,29.44648],[-98.12134,29.4463],[-98.12182,29.44616],[-98.12292,29.44599],[-98.12348,29.44602],[-98.12407,29.44624],[-98.1252,29.44641],[-98.1255,29.4463],[-98.12651,29.44609],[-98.12765,29.44567],[-98.12868,29.44537],[-98.12898,29.44483],[-98.12914,29.44427],[-98.12958,29.44392],[-98.13113,29.44319],[-98.13134,29.44297],[-98.13165,29.44297],[-98.13203,29.44278],[-98.13267,29.4427],[-98.1329,29.44262],[-98.13344,29.44223],[-98.13402,29.44197],[-98.13418,29.44176],[-98.1372,29.44042],[-98.14169,29.4349],[-98.14659,29.42914],[-98.15364,29.42055],[-98.15371,29.42052],[-98.16049,29.41254],[-98.16619,29.40534],[-98.16772,29.40359],[-98.17179,29.39871],[-98.17539,29.39434],[-98.17564,29.39393],[-98.1803,29.38842],[-98.18669,29.38044],[-98.18769,29.37904],[-98.1884,29.37824],[-98.19061,29.37525],[-98.19759,29.36684],[-98.20459,29.35824],[-98.21159,29.34984],[-98.22143,29.33787],[-98.222,29.33724],[-98.2299,29.32754],[-98.23804,29.31769],[-98.24353,29.31089],[-98.2493,29.30394],[-98.2545,29.29744],[-98.25549,29.29634],[-98.2579,29.29334],[-98.2669,29.28244],[-98.26774,29.28131],[-98.28,29.26634],[-98.2871,29.25754],[-98.29331,29.25025],[-98.29596,29.24732],[-98.33798,29.19695],[-98.34283,29.19123],[-98.37104,29.15748],[-98.39759,29.12525],[-98.40734,29.11444],[-98.4107,29.11551],[-98.41407,29.11672],[-98.41828,29.11809],[-98.42625,29.12082],[-98.43086,29.12235],[-98.43561,29.12409],[-98.50778,29.14894],[-98.51195,29.15032],[-98.52401,29.15444],[-98.52463,29.15469],[-98.52601,29.15513],[-98.62158,29.18788],[-98.62533,29.18928],[-98.7467,29.23072],[-98.75031,29.23184],[-98.80212,29.24961],[-98.80378,29.25024],[-98.80477,29.2507],[-98.80479,29.26202],[-98.80474,29.27496],[-98.80482,29.28208],[-98.80486,29.30141],[-98.80491,29.302],[-98.80516,29.30275],[-98.80491,29.303],[-98.80487,29.3032],[-98.80493,29.31293],[-98.80486,29.31398],[-98.8046,29.32252],[-98.80476,29.3657],[-98.8048,29.3716],[-98.80489,29.37507],[-98.80501,29.42951],[-98.80518,29.46296],[-98.80549,29.50027],[-98.80586,29.58186],[-98.80597,29.61687],[-98.80591,29.64316],[-98.80633,29.6675],[-98.80656,29.69071]]]]}}]}